<?xml version='1.0' encoding='utf-8'?>
<q:quakeml xmlns="http://quakeml.org/xmlns/bed/1.2" xmlns:q="http://quakeml.org/xmlns/quakeml/1.2">
  <eventParameters publicID="smi:local/6dfeebac-e5f2-4c88-a715-7a5c502e021d">
    <event publicID="smi:nz.org.geonet/2019p345502">
      <preferredOriginID>smi:nz.org.geonet/Origin/20190508200547.081738.29824</preferredOriginID>
      <preferredMagnitudeID>smi:nz.org.geonet/Origin/20190508200547.081738.29824/netMag/M</preferredMagnitudeID>
      <type>earthquake</type>
      <description>
        <text>Otago</text>
        <type>region name</type>
      </description>
      <creationInfo>
        <agencyID>WEL(GNS_Primary)</agencyID>
        <author>scevent@kseqp02.geonet.org.nz</author>
        <creationTime>2019-05-08T20:04:11.657107Z</creationTime>
      </creationInfo>
      <origin publicID="smi:nz.org.geonet/Origin/20190508200547.081738.29824">
        <time>
          <value>2019-05-08T20:03:32.781766Z</value>
          <uncertainty>0.4394402199</uncertainty>
          <confidenceLevel>89.99999762</confidenceLevel>
        </time>
        <latitude>
          <value>-44.26753616</value>
          <uncertainty>3.777714373</uncertainty>
          <confidenceLevel>89.99999762</confidenceLevel>
        </latitude>
        <longitude>
          <value>169.3571014</value>
          <uncertainty>2.175260216</uncertainty>
          <confidenceLevel>89.99999762</confidenceLevel>
        </longitude>
        <depth>
          <value>5258.625031</value>
          <uncertainty>4807.440195</uncertainty>
          <confidenceLevel>89.99999762</confidenceLevel>
        </depth>
        <methodID>smi:nz.org.geonet/LOCSAT</methodID>
        <earthModelID>smi:nz.org.geonet/iasp91</earthModelID>
        <quality>
          <associatedPhaseCount>22</associatedPhaseCount>
          <usedPhaseCount>22</usedPhaseCount>
          <associatedStationCount>15</associatedStationCount>
          <usedStationCount>15</usedStationCount>
          <depthPhaseCount>0</depthPhaseCount>
          <standardError>0.5461824588</standardError>
          <azimuthalGap>54.93072128</azimuthalGap>
          <minimumDistance>0.09662742913</minimumDistance>
          <maximumDistance>1.408822536</maximumDistance>
          <medianDistance>0.6053814292</medianDistance>
        </quality>
        <evaluationMode>manual</evaluationMode>
        <evaluationStatus>confirmed</evaluationStatus>
        <creationInfo>
          <agencyID>WEL(GNS_Primary)</agencyID>
          <author>connorr@kseqx02.geonet.org.nz</author>
          <creationTime>2019-05-08T20:05:47.082194Z</creationTime>
        </creationInfo>
        <originUncertainty>
          <preferredDescription>confidence ellipsoid</preferredDescription>
          <horizontalUncertainty>4359.229622</horizontalUncertainty>
          <minHorizontalUncertainty>2809.533862</minHorizontalUncertainty>
          <maxHorizontalUncertainty>4944.874304</maxHorizontalUncertainty>
          <azimuthMaxHorizontalUncertainty>5.651100456</azimuthMaxHorizontalUncertainty>
          <confidenceEllipsoid>
            <semiMajorAxisLength>8092784.439</semiMajorAxisLength>
            <semiMinorAxisLength>3036868.053</semiMinorAxisLength>
            <semiIntermediateAxisLength>4753220.338</semiIntermediateAxisLength>
            <majorAxisPlunge>58.88449579</majorAxisPlunge>
            <majorAxisAzimuth>174.1844129</majorAxisAzimuth>
            <majorAxisRotation>12.59559444</majorAxisRotation>
          </confidenceEllipsoid>
        </originUncertainty>
        <arrival publicID="smi:nz.org.geonet/Pick/20190508200545.48772.29813_Origin/20190508200547.081738.29824">
          <pickID>smi:nz.org.geonet/Pick/20190508200545.48772.29813</pickID>
          <phase>P</phase>
          <azimuth>292.524353</azimuth>
          <distance>0.09662742913</distance>
          <timeResidual>0.3757998943</timeResidual>
          <timeWeight>1.0</timeWeight>
        </arrival>
        <arrival publicID="smi:nz.org.geonet/Pick/20190508200545.487908.29814_Origin/20190508200547.081738.29824">
          <pickID>smi:nz.org.geonet/Pick/20190508200545.487908.29814</pickID>
          <phase>S</phase>
          <azimuth>292.524353</azimuth>
          <distance>0.09662742913</distance>
          <timeResidual>0.304587841</timeResidual>
          <timeWeight>1.0</timeWeight>
        </arrival>
        <arrival publicID="smi:nz.org.geonet/Pick/20190508200545.48802.29815_Origin/20190508200547.081738.29824">
          <pickID>smi:nz.org.geonet/Pick/20190508200545.48802.29815</pickID>
          <phase>P</phase>
          <azimuth>329.4893494</azimuth>
          <distance>0.4457256794</distance>
          <timeResidual>0.2894017696</timeResidual>
          <timeWeight>1.0</timeWeight>
        </arrival>
        <arrival publicID="smi:nz.org.geonet/Pick/20190508200545.488096.29816_Origin/20190508200547.081738.29824">
          <pickID>smi:nz.org.geonet/Pick/20190508200545.488096.29816</pickID>
          <phase>S</phase>
          <azimuth>329.4893494</azimuth>
          <distance>0.4457256794</distance>
          <timeResidual>-0.4933512211</timeResidual>
          <timeWeight>1.0</timeWeight>
        </arrival>
        <arrival publicID="smi:nz.org.geonet/20190508.200342.49-AIC-NZ.JCZ.10.HHZ_Origin/20190508200547.081738.29824">
          <pickID>smi:nz.org.geonet/20190508.200342.49-AIC-NZ.JCZ.10.HHZ</pickID>
          <phase>P</phase>
          <azimuth>295.0831909</azimuth>
          <distance>0.4549161196</distance>
          <timeResidual>0.4965007305</timeResidual>
          <timeWeight>1.0</timeWeight>
        </arrival>
        <arrival publicID="smi:nz.org.geonet/Pick/20190508200454.543759.29527_Origin/20190508200547.081738.29824">
          <pickID>smi:nz.org.geonet/Pick/20190508200454.543759.29527</pickID>
          <phase>S</phase>
          <azimuth>295.0831909</azimuth>
          <distance>0.4549161196</distance>
          <timeResidual>-0.2289879322</timeResidual>
          <timeWeight>1.0</timeWeight>
        </arrival>
        <arrival publicID="smi:nz.org.geonet/Pick/20190508200545.488185.29817_Origin/20190508200547.081738.29824">
          <pickID>smi:nz.org.geonet/Pick/20190508200545.488185.29817</pickID>
          <phase>P</phase>
          <azimuth>88.86549377</azimuth>
          <distance>0.5327420235</distance>
          <timeResidual>0.5024726391</timeResidual>
          <timeWeight>1.0</timeWeight>
        </arrival>
        <arrival publicID="smi:nz.org.geonet/Pick/20190508200545.488264.29818_Origin/20190508200547.081738.29824">
          <pickID>smi:nz.org.geonet/Pick/20190508200545.488264.29818</pickID>
          <phase>S</phase>
          <azimuth>88.86549377</azimuth>
          <distance>0.5327420235</distance>
          <timeResidual>-0.3194601536</timeResidual>
          <timeWeight>1.0</timeWeight>
        </arrival>
        <arrival publicID="smi:nz.org.geonet/Pick/20190508200545.488337.29819_Origin/20190508200547.081738.29824">
          <pickID>smi:nz.org.geonet/Pick/20190508200545.488337.29819</pickID>
          <phase>P</phase>
          <azimuth>298.0296021</azimuth>
          <distance>0.5692262053</distance>
          <timeResidual>0.5521657467</timeResidual>
          <timeWeight>1.0</timeWeight>
        </arrival>
        <arrival publicID="smi:nz.org.geonet/Pick/20190508200545.488405.29820_Origin/20190508200547.081738.29824">
          <pickID>smi:nz.org.geonet/Pick/20190508200545.488405.29820</pickID>
          <phase>S</phase>
          <azimuth>298.0296021</azimuth>
          <distance>0.5692262053</distance>
          <timeResidual>0.2010810375</timeResidual>
          <timeWeight>1.0</timeWeight>
        </arrival>
        <arrival publicID="smi:nz.org.geonet/20190508.200344.55-AIC-NZ.WKZ.10.HHZ_Origin/20190508200547.081738.29824">
          <pickID>smi:nz.org.geonet/20190508.200344.55-AIC-NZ.WKZ.10.HHZ</pickID>
          <phase>P</phase>
          <azimuth>203.341629</azimuth>
          <distance>0.6098226905</distance>
          <timeResidual>-0.2711136341</timeResidual>
          <timeWeight>1.0</timeWeight>
        </arrival>
        <arrival publicID="smi:nz.org.geonet/20190508.200345.11-AIC-NZ.LBZ.10.HHZ_Origin/20190508200547.081738.29824">
          <pickID>smi:nz.org.geonet/20190508.200345.11-AIC-NZ.LBZ.10.HHZ</pickID>
          <phase>P</phase>
          <azimuth>101.5271835</azimuth>
          <distance>0.6053814292</distance>
          <timeResidual>0.3690392971</timeResidual>
          <timeWeight>1.0</timeWeight>
        </arrival>
        <arrival publicID="smi:nz.org.geonet/Pick/20190508200454.543948.29528_Origin/20190508200547.081738.29824">
          <pickID>smi:nz.org.geonet/Pick/20190508200454.543948.29528</pickID>
          <phase>S</phase>
          <azimuth>101.5271835</azimuth>
          <distance>0.6053814292</distance>
          <timeResidual>-0.3517067432</timeResidual>
          <timeWeight>1.0</timeWeight>
        </arrival>
        <arrival publicID="smi:nz.org.geonet/Pick/20190508200545.488486.29821_Origin/20190508200547.081738.29824">
          <pickID>smi:nz.org.geonet/Pick/20190508200545.488486.29821</pickID>
          <phase>P</phase>
          <azimuth>45.42538452</azimuth>
          <distance>0.7530907393</distance>
          <timeResidual>-0.6480209827</timeResidual>
          <timeWeight>1.0</timeWeight>
        </arrival>
        <arrival publicID="smi:nz.org.geonet/20190508.200347.78-AIC-NZ.FOZ.11.HHZ_Origin/20190508200547.081738.29824">
          <pickID>smi:nz.org.geonet/20190508.200347.78-AIC-NZ.FOZ.11.HHZ</pickID>
          <phase>P</phase>
          <azimuth>24.42007065</azimuth>
          <distance>0.8068777919</distance>
          <timeResidual>-0.6446611881</timeResidual>
          <timeWeight>1.0</timeWeight>
        </arrival>
        <arrival publicID="smi:nz.org.geonet/20190508.200350.91-AIC-NZ.EAZ.10.HHZ_Origin/20190508200547.081738.29824">
          <pickID>smi:nz.org.geonet/20190508.200350.91-AIC-NZ.EAZ.10.HHZ</pickID>
          <phase>P</phase>
          <azimuth>182.0517578</azimuth>
          <distance>0.964066267</distance>
          <timeResidual>-0.3826191425</timeResidual>
          <timeWeight>1.0</timeWeight>
        </arrival>
        <arrival publicID="smi:nz.org.geonet/20190508.200353.47-AIC-NZ.MSZ.10.HHZ_Origin/20190508200547.081738.29824">
          <pickID>smi:nz.org.geonet/20190508.200353.47-AIC-NZ.MSZ.10.HHZ</pickID>
          <phase>P</phase>
          <azimuth>247.893158</azimuth>
          <distance>1.101740956</distance>
          <timeResidual>-0.09496617317</timeResidual>
          <timeWeight>1.0</timeWeight>
        </arrival>
        <arrival publicID="smi:nz.org.geonet/Pick/20190508200454.544054.29529_Origin/20190508200547.081738.29824">
          <pickID>smi:nz.org.geonet/Pick/20190508200454.544054.29529</pickID>
          <phase>S</phase>
          <azimuth>247.893158</azimuth>
          <distance>1.101740956</distance>
          <timeResidual>-1.17360425</timeResidual>
          <timeWeight>1.0</timeWeight>
        </arrival>
        <arrival publicID="smi:nz.org.geonet/20190508.200354.27-AIC-NZ.GCSZ.10.EHZ_Origin/20190508200547.081738.29824">
          <pickID>smi:nz.org.geonet/20190508.200354.27-AIC-NZ.GCSZ.10.EHZ</pickID>
          <phase>P</phase>
          <azimuth>36.76948547</azimuth>
          <distance>1.182315111</distance>
          <timeResidual>-0.5657074451</timeResidual>
          <timeWeight>1.0</timeWeight>
        </arrival>
        <arrival publicID="smi:nz.org.geonet/20190508.200355.36-AIC-NZ.ODZ.10.HHZ_Origin/20190508200547.081738.29824">
          <pickID>smi:nz.org.geonet/20190508.200355.36-AIC-NZ.ODZ.10.HHZ</pickID>
          <phase>P</phase>
          <azimuth>130.6435242</azimuth>
          <distance>1.202937603</distance>
          <timeResidual>0.2106807232</timeResidual>
          <timeWeight>1.0</timeWeight>
        </arrival>
        <arrival publicID="smi:nz.org.geonet/20190508.200358.67-AIC-NZ.ARCZ.10.EHZ_Origin/20190508200547.081738.29824">
          <pickID>smi:nz.org.geonet/20190508.200358.67-AIC-NZ.ARCZ.10.EHZ</pickID>
          <phase>P</phase>
          <azimuth>76.89624786</azimuth>
          <distance>1.349375129</distance>
          <timeResidual>1.239187956</timeResidual>
          <timeWeight>1.0</timeWeight>
        </arrival>
        <arrival publicID="smi:nz.org.geonet/20190508.200358.97-AIC-NZ.MLZ.10.HHZ_Origin/20190508200547.081738.29824">
          <pickID>smi:nz.org.geonet/20190508.200358.97-AIC-NZ.MLZ.10.HHZ</pickID>
          <phase>P</phase>
          <azimuth>218.3043365</azimuth>
          <distance>1.408822536</distance>
          <timeResidual>0.6334941387</timeResidual>
          <timeWeight>1.0</timeWeight>
        </arrival>
      </origin>
      <magnitude publicID="smi:nz.org.geonet/Magnitude/20190508200623.060238.29981">
        <mag>
          <value>3.266874718</value>
          <uncertainty>0.1477348226</uncertainty>
        </mag>
        <type>ML</type>
        <originID>smi:nz.org.geonet/Origin/20190508200547.081738.29824</originID>
        <methodID>smi:nz.org.geonet/trimmed_mean</methodID>
        <stationCount>8</stationCount>
        <stationMagnitudeContribution>
          <stationMagnitudeID>smi:nz.org.geonet/StationMagnitude/20190508200623.060472.29982</stationMagnitudeID>
          <weight>0.75</weight>
          <residual>0.2109512806</residual>
        </stationMagnitudeContribution>
        <stationMagnitudeContribution>
          <stationMagnitudeID>smi:nz.org.geonet/StationMagnitude/20190508200623.060755.29983</stationMagnitudeID>
          <weight>1.0</weight>
          <residual>-0.06064960104</residual>
        </stationMagnitudeContribution>
        <stationMagnitudeContribution>
          <stationMagnitudeID>smi:nz.org.geonet/StationMagnitude/20190508200623.060989.29984</stationMagnitudeID>
          <weight>0.75</weight>
          <residual>-0.2065609354</residual>
        </stationMagnitudeContribution>
        <stationMagnitudeContribution>
          <stationMagnitudeID>smi:nz.org.geonet/StationMagnitude/20190508200623.061219.29985</stationMagnitudeID>
          <weight>1.0</weight>
          <residual>0.04018068155</residual>
        </stationMagnitudeContribution>
        <stationMagnitudeContribution>
          <stationMagnitudeID>smi:nz.org.geonet/StationMagnitude/20190508200623.061418.29986</stationMagnitudeID>
          <weight>1.0</weight>
          <residual>0.1929021995</residual>
        </stationMagnitudeContribution>
        <stationMagnitudeContribution>
          <stationMagnitudeID>smi:nz.org.geonet/StationMagnitude/20190508200623.061639.29987</stationMagnitudeID>
          <weight>0.0</weight>
          <residual>0.2566736005</residual>
        </stationMagnitudeContribution>
        <stationMagnitudeContribution>
          <stationMagnitudeID>smi:nz.org.geonet/StationMagnitude/20190508200623.061916.29988</stationMagnitudeID>
          <weight>0.0</weight>
          <residual>-0.2359171889</residual>
        </stationMagnitudeContribution>
        <stationMagnitudeContribution>
          <stationMagnitudeID>smi:nz.org.geonet/StationMagnitude/20190508200623.062158.29989</stationMagnitudeID>
          <weight>1.0</weight>
          <residual>-0.008583075634</residual>
        </stationMagnitudeContribution>
        <stationMagnitudeContribution>
          <stationMagnitudeID>smi:nz.org.geonet/StationMagnitude/20190508200623.062352.29990</stationMagnitudeID>
          <weight>1.0</weight>
          <residual>-0.1834318455</residual>
        </stationMagnitudeContribution>
        <stationMagnitudeContribution>
          <stationMagnitudeID>smi:nz.org.geonet/StationMagnitude/20190508200623.062571.29991</stationMagnitudeID>
          <weight>1.0</weight>
          <residual>0.01628888228</residual>
        </stationMagnitudeContribution>
        <creationInfo>
          <agencyID>WEL(GNS_Primary)</agencyID>
          <author>connorr@kseqx02.geonet.org.nz</author>
          <creationTime>2019-05-08T20:06:23.060258Z</creationTime>
        </creationInfo>
      </magnitude>
      <magnitude publicID="smi:nz.org.geonet/Magnitude/20190508200623.062696.29992">
        <mag>
          <value>3.046392084</value>
          <uncertainty>0.1512726899</uncertainty>
        </mag>
        <type>MLv</type>
        <originID>smi:nz.org.geonet/Origin/20190508200547.081738.29824</originID>
        <methodID>smi:nz.org.geonet/trimmed_mean</methodID>
        <stationCount>8</stationCount>
        <evaluationStatus>confirmed</evaluationStatus>
        <stationMagnitudeContribution>
          <stationMagnitudeID>smi:nz.org.geonet/StationMagnitude/20190508200630.657259.30019</stationMagnitudeID>
          <weight>0.75</weight>
        </stationMagnitudeContribution>
        <stationMagnitudeContribution>
          <stationMagnitudeID>smi:nz.org.geonet/StationMagnitude/20190508200630.657489.30020</stationMagnitudeID>
          <weight>0.0</weight>
        </stationMagnitudeContribution>
        <stationMagnitudeContribution>
          <stationMagnitudeID>smi:nz.org.geonet/StationMagnitude/20190508200630.657757.30021</stationMagnitudeID>
          <weight>1.0</weight>
        </stationMagnitudeContribution>
        <stationMagnitudeContribution>
          <stationMagnitudeID>smi:nz.org.geonet/StationMagnitude/20190508200630.65799.30022</stationMagnitudeID>
          <weight>1.0</weight>
        </stationMagnitudeContribution>
        <stationMagnitudeContribution>
          <stationMagnitudeID>smi:nz.org.geonet/StationMagnitude/20190508200630.658192.30023</stationMagnitudeID>
          <weight>1.0</weight>
        </stationMagnitudeContribution>
        <stationMagnitudeContribution>
          <stationMagnitudeID>smi:nz.org.geonet/StationMagnitude/20190508200630.658405.30024</stationMagnitudeID>
          <weight>0.0</weight>
        </stationMagnitudeContribution>
        <stationMagnitudeContribution>
          <stationMagnitudeID>smi:nz.org.geonet/StationMagnitude/20190508200630.658643.30025</stationMagnitudeID>
          <weight>0.75</weight>
        </stationMagnitudeContribution>
        <stationMagnitudeContribution>
          <stationMagnitudeID>smi:nz.org.geonet/StationMagnitude/20190508200630.658869.30026</stationMagnitudeID>
          <weight>1.0</weight>
        </stationMagnitudeContribution>
        <stationMagnitudeContribution>
          <stationMagnitudeID>smi:nz.org.geonet/StationMagnitude/20190508200630.659119.30027</stationMagnitudeID>
          <weight>1.0</weight>
        </stationMagnitudeContribution>
        <stationMagnitudeContribution>
          <stationMagnitudeID>smi:nz.org.geonet/StationMagnitude/20190508200630.659342.30028</stationMagnitudeID>
          <weight>1.0</weight>
        </stationMagnitudeContribution>
        <creationInfo>
          <agencyID>WEL(GNS_Primary)</agencyID>
          <author>connorr@kseqx02.geonet.org.nz</author>
          <creationTime>2019-05-08T20:06:30.657000Z</creationTime>
        </creationInfo>
      </magnitude>
      <magnitude publicID="smi:nz.org.geonet/Origin/20190508200547.081738.29824/netMag/M">
        <mag>
          <value>3.046392084</value>
        </mag>
        <type>M</type>
        <originID>smi:nz.org.geonet/Origin/20190508200547.081738.29824</originID>
        <methodID>smi:nz.org.geonet/weighted_average</methodID>
        <stationCount>8</stationCount>
        <creationInfo>
          <agencyID>WEL(GNS_Primary)</agencyID>
          <author>scmag@kseqp02.geonet.org.nz</author>
          <creationTime>2019-05-08T20:06:38.886849Z</creationTime>
        </creationInfo>
      </magnitude>
      <stationMagnitude publicID="smi:nz.org.geonet/StationMagnitude/20190508200623.060472.29982">
        <originID>smi:nz.org.geonet/Origin/20190508200547.081738.29824</originID>
        <mag>
          <value>3.477825999</value>
        </mag>
        <type>ML</type>
