<?xml version='1.0' encoding='utf-8'?>
<q:quakeml xmlns:q="http://quakeml.org/xmlns/quakeml/1.2" xmlns="http://quakeml.org/xmlns/bed/1.2">
  <eventParameters publicID="smi:nz.org.geonet/NA">
    <event publicID="smi:nz.org.geonet/2019p316283">
      <preferredOriginID>smi:nz.org.geonet/Origin/20190428003829.174757.38801</preferredOriginID>
      <preferredMagnitudeID>smi:nz.org.geonet/Origin/20190428003829.174757.38801/netMag/M</preferredMagnitudeID>
      <type>earthquake</type>
      <description>
        <text>Hawke's Bay</text>
        <type>region name</type>
      </description>
      <creationInfo>
        <agencyID>WEL(GNS_Primary)</agencyID>
        <author>scevent@kseqp02.geonet.org.nz</author>
        <creationTime>2019-04-28T00:36:09.547122Z</creationTime>
      </creationInfo>
      <origin publicID="smi:nz.org.geonet/Origin/20190428003829.174757.38801">
        <time>
          <value>2019-04-28T00:35:45.656231Z</value>
          <uncertainty>0.667972035</uncertainty>
          <confidenceLevel>89.99999762</confidenceLevel>
        </time>
        <latitude>
          <value>-40.25638199</value>
          <uncertainty>2.402758118</uncertainty>
          <confidenceLevel>89.99999762</confidenceLevel>
        </latitude>
        <longitude>
          <value>176.6071014</value>
          <uncertainty>3.107703184</uncertainty>
          <confidenceLevel>89.99999762</confidenceLevel>
        </longitude>
        <depth>
          <value>14497.62058</value>
          <uncertainty>4528.928409</uncertainty>
          <confidenceLevel>89.99999762</confidenceLevel>
        </depth>
        <methodID>smi:nz.org.geonet/LOCSAT</methodID>
        <earthModelID>smi:nz.org.geonet/iasp91</earthModelID>
        <quality>
          <associatedPhaseCount>57</associatedPhaseCount>
          <usedPhaseCount>26</usedPhaseCount>
          <associatedStationCount>42</associatedStationCount>
          <usedStationCount>19</usedStationCount>
          <depthPhaseCount>0</depthPhaseCount>
          <standardError>0.3943592806</standardError>
          <azimuthalGap>73.90426254</azimuthalGap>
          <minimumDistance>0.0236879345</minimumDistance>
          <maximumDistance>0.8825747967</maximumDistance>
          <medianDistance>0.3396607339</medianDistance>
        </quality>
        <evaluationMode>manual</evaluationMode>
        <evaluationStatus>confirmed</evaluationStatus>
        <creationInfo>
          <agencyID>WEL(GNS_Primary)</agencyID>
          <author>afromont@kseqx02.geonet.org.nz</author>
          <creationTime>2019-04-28T00:38:29.175472Z</creationTime>
        </creationInfo>
        <originUncertainty>
          <preferredDescription>confidence ellipsoid</preferredDescription>
          <horizontalUncertainty>3928.239511</horizontalUncertainty>
          <minHorizontalUncertainty>2965.577934</minHorizontalUncertainty>
          <maxHorizontalUncertainty>4179.824662</maxHorizontalUncertainty>
          <azimuthMaxHorizontalUncertainty>110.1760283</azimuthMaxHorizontalUncertainty>
          <confidenceEllipsoid>
            <semiMajorAxisLength>7304042.485</semiMajorAxisLength>
            <semiMinorAxisLength>3376058.251</semiMinorAxisLength>
            <semiIntermediateAxisLength>4277949.028</semiIntermediateAxisLength>
            <majorAxisPlunge>66.00173262</majorAxisPlunge>
            <majorAxisAzimuth>121.0501474</majorAxisAzimuth>
            <majorAxisRotation>8.72318099</majorAxisRotation>
          </confidenceEllipsoid>
        </originUncertainty>
        <arrival publicID="smi:nz.org.geonet/20190428.003548.26-AIC-NZ.PRHZ.10.EHZ_Origin/20190428003829.174757.38801">
          <pickID>smi:nz.org.geonet/20190428.003548.26-AIC-NZ.PRHZ.10.EHZ</pickID>
          <phase>P</phase>
          <azimuth>114.914772</azimuth>
          <distance>0.0236879345</distance>
          <timeResidual>-0.2773368359</timeResidual>
          <timeWeight>1.0</timeWeight>
        </arrival>
        <arrival publicID="smi:nz.org.geonet/Pick/20190428003722.697778.38353_Origin/20190428003829.174757.38801">
          <pickID>smi:nz.org.geonet/Pick/20190428003722.697778.38353</pickID>
          <phase>S</phase>
          <azimuth>114.914772</azimuth>
          <distance>0.0236879345</distance>
          <timeResidual>0.3071277142</timeResidual>
          <timeWeight>1.0</timeWeight>
        </arrival>
        <arrival publicID="smi:nz.org.geonet/Pick/20190428003745.230379.38734_Origin/20190428003829.174757.38801">
          <pickID>smi:nz.org.geonet/Pick/20190428003745.230379.38734</pickID>
          <phase>P</phase>
          <azimuth>175.5531311</azimuth>
          <distance>0.04590515047</distance>
          <timeResidual>-0.5131418705</timeResidual>
          <timeWeight>1.0</timeWeight>
        </arrival>
        <arrival publicID="smi:nz.org.geonet/Pick/20190428003745.230566.38735_Origin/20190428003829.174757.38801">
          <pickID>smi:nz.org.geonet/Pick/20190428003745.230566.38735</pickID>
          <phase>S</phase>
          <azimuth>175.5531311</azimuth>
          <distance>0.04590515047</distance>
          <timeResidual>-0.03962802887</timeResidual>
          <timeWeight>1.0</timeWeight>
        </arrival>
        <arrival publicID="smi:nz.org.geonet/20190428.003551.34-AIC-NZ.ANWZ.10.EHZ_Origin/20190428003829.174757.38801">
          <pickID>smi:nz.org.geonet/20190428.003551.34-AIC-NZ.ANWZ.10.EHZ</pickID>
          <phase>P</phase>
          <azimuth>206.3728485</azimuth>
          <distance>0.2268183678</distance>
          <timeResidual>-0.556542635</timeResidual>
          <timeWeight>1.0</timeWeight>
        </arrival>
        <arrival publicID="smi:nz.org.geonet/Pick/20190428003722.697964.38354_Origin/20190428003829.174757.38801">
          <pickID>smi:nz.org.geonet/Pick/20190428003722.697964.38354</pickID>
          <phase>S</phase>
          <azimuth>206.3728485</azimuth>
          <distance>0.2268183678</distance>
          <timeResidual>0.5740280151</timeResidual>
          <timeWeight>1.0</timeWeight>
        </arrival>
        <arrival publicID="smi:nz.org.geonet/20190428.003551.63-AIC-NZ.WPHZ.10.EHZ_Origin/20190428003829.174757.38801">
          <pickID>smi:nz.org.geonet/20190428.003551.63-AIC-NZ.WPHZ.10.EHZ</pickID>
          <phase>P</phase>
          <azimuth>326.3194885</azimuth>
          <distance>0.23046422</distance>
          <timeResidual>-0.3279800415</timeResidual>
          <timeWeight>1.0</timeWeight>
        </arrival>
        <arrival publicID="smi:nz.org.geonet/Pick/20190428003722.698126.38356_Origin/20190428003829.174757.38801">
          <pickID>smi:nz.org.geonet/Pick/20190428003722.698126.38356</pickID>
          <phase>S</phase>
          <azimuth>326.3194885</azimuth>
          <distance>0.23046422</distance>
          <timeResidual>0.3183574677</timeResidual>
          <timeWeight>1.0</timeWeight>
        </arrival>
        <arrival publicID="smi:nz.org.geonet/20190428.003552.36-AIC-NZ.PXZ.10.HHZ_Origin/20190428003829.174757.38801">
          <pickID>smi:nz.org.geonet/20190428.003552.36-AIC-NZ.PXZ.10.HHZ</pickID>
          <phase>P</phase>
          <azimuth>41.01050949</azimuth>
          <distance>0.2984375656</distance>
          <timeResidual>-0.7206134796</timeResidual>
          <timeWeight>1.0</timeWeight>
        </arrival>
        <arrival publicID="smi:nz.org.geonet/Pick/20190428003722.698049.38355_Origin/20190428003829.174757.38801">
          <pickID>smi:nz.org.geonet/Pick/20190428003722.698049.38355</pickID>
          <phase>S</phase>
          <azimuth>41.01050949</azimuth>
          <distance>0.2984375656</distance>
          <timeResidual>0.714425087</timeResidual>
          <timeWeight>1.0</timeWeight>
        </arrival>
        <arrival publicID="smi:nz.org.geonet/Pick/20190428003745.230656.38736_Origin/20190428003829.174757.38801">
          <pickID>smi:nz.org.geonet/Pick/20190428003745.230656.38736</pickID>
          <phase>P</phase>
          <azimuth>356.7886353</azimuth>
          <distance>0.3126438558</distance>
          <timeResidual>-0.6043930054</timeResidual>
          <timeWeight>1.0</timeWeight>
        </arrival>
        <arrival publicID="smi:nz.org.geonet/Pick/20190428003745.230726.38737_Origin/20190428003829.174757.38801">
          <pickID>smi:nz.org.geonet/Pick/20190428003745.230726.38737</pickID>
          <phase>S</phase>
          <azimuth>356.7886353</azimuth>
          <distance>0.3126438558</distance>
          <timeResidual>-0.2472763062</timeResidual>
          <timeWeight>1.0</timeWeight>
        </arrival>
        <arrival publicID="smi:nz.org.geonet/20190428.003553.43-AIC-NZ.DVHZ.10.EHZ_Origin/20190428003829.174757.38801">
          <pickID>smi:nz.org.geonet/20190428.003553.43-AIC-NZ.DVHZ.10.EHZ</pickID>
          <phase>P</phase>
          <azimuth>262.6823425</azimuth>
          <distance>0.3396607339</distance>
          <timeResidual>-0.3252801895</timeResidual>
          <timeWeight>1.0</timeWeight>
        </arrival>
        <arrival publicID="smi:nz.org.geonet/Pick/20190428003722.698196.38357_Origin/20190428003829.174757.38801">
          <pickID>smi:nz.org.geonet/Pick/20190428003722.698196.38357</pickID>
          <phase>S</phase>
          <azimuth>262.6823425</azimuth>
          <distance>0.3396607339</distance>
          <timeResidual>0.03542900085</timeResidual>
          <timeWeight>1.0</timeWeight>
        </arrival>
        <arrival publicID="smi:nz.org.geonet/20190428.003555.70-AIC-NZ.PNHZ.10.EHZ_Origin/20190428003829.174757.38801">
          <pickID>smi:nz.org.geonet/20190428.003555.70-AIC-NZ.PNHZ.10.EHZ</pickID>
          <phase>P</phase>
          <azimuth>317.5016785</azimuth>
          <distance>0.4637130797</distance>
          <timeResidual>-0.1103649139</timeResidual>
          <timeWeight>1.0</timeWeight>
        </arrival>
        <arrival publicID="smi:nz.org.geonet/Pick/20190428003722.698396.38360_Origin/20190428003829.174757.38801">
          <pickID>smi:nz.org.geonet/Pick/20190428003722.698396.38360</pickID>
          <phase>S</phase>
          <azimuth>317.5016785</azimuth>
          <distance>0.4637130797</distance>
          <timeResidual>0.7427434921</timeResidual>
        </arrival>
        <arrival publicID="smi:nz.org.geonet/20190428.003556.38-AIC-NZ.BFZ.10.HHZ_Origin/20190428003829.174757.38801">
          <pickID>smi:nz.org.geonet/20190428.003556.38-AIC-NZ.BFZ.10.HHZ</pickID>
          <phase>P</phase>
          <azimuth>212.9528503</azimuth>
          <distance>0.5045348406</distance>
          <timeResidual>-0.09685134888</timeResidual>
          <timeWeight>1.0</timeWeight>
        </arrival>
        <arrival publicID="smi:nz.org.geonet/Pick/20190428003722.698266.38358_Origin/20190428003829.174757.38801">
          <pickID>smi:nz.org.geonet/Pick/20190428003722.698266.38358</pickID>
          <phase>S</phase>
          <azimuth>212.9528503</azimuth>
          <distance>0.5045348406</distance>
          <timeResidual>1.172753334</timeResidual>
        </arrival>
        <arrival publicID="smi:nz.org.geonet/20190428.003556.70-AIC-NZ.KAHZ.10.EHZ_Origin/20190428003829.174757.38801">
          <pickID>smi:nz.org.geonet/20190428.003556.70-AIC-NZ.KAHZ.10.EHZ</pickID>
          <phase>P</phase>
          <azimuth>24.23405838</azimuth>
          <distance>0.5058953166</distance>
          <timeResidual>0.1979093552</timeResidual>
          <timeWeight>1.0</timeWeight>
        </arrival>
        <arrival publicID="smi:nz.org.geonet/Pick/20190428003722.698332.38359_Origin/20190428003829.174757.38801">
          <pickID>smi:nz.org.geonet/Pick/20190428003722.698332.38359</pickID>
          <phase>S</phase>
          <azimuth>24.23405838</azimuth>
          <distance>0.5058953166</distance>
          <timeResidual>2.198874474</timeResidual>
        </arrival>
        <arrival publicID="smi:nz.org.geonet/20190428.003556.82-AIC-NZ.TSZ.10.HHZ_Origin/20190428003829.174757.38801">
          <pickID>smi:nz.org.geonet/20190428.003556.82-AIC-NZ.TSZ.10.HHZ</pickID>
          <phase>P</phase>
          <azimuth>291.5507507</azimuth>
          <distance>0.5330588222</distance>
          <timeResidual>-0.135102272</timeResidual>
          <timeWeight>1.0</timeWeight>
        </arrival>
        <arrival publicID="smi:nz.org.geonet/Pick/20190428003722.698532.38362_Origin/20190428003829.174757.38801">
          <pickID>smi:nz.org.geonet/Pick/20190428003722.698532.38362</pickID>
          <phase>S</phase>
          <azimuth>291.5507507</azimuth>
          <distance>0.5330588222</distance>
          <timeResidual>0.7273626328</timeResidual>
        </arrival>
        <arrival publicID="smi:nz.org.geonet/20190428.003558.09-AIC-NZ.PRWZ.10.EHZ_Origin/20190428003829.174757.38801">
          <pickID>smi:nz.org.geonet/20190428.003558.09-AIC-NZ.PRWZ.10.EHZ</pickID>
          <phase>P</phase>
          <azimuth>238.2660522</azimuth>
          <distance>0.5698547959</distance>
          <timeResidual>0.5340461731</timeResidual>
          <timeWeight>1.0</timeWeight>
        </arrival>
        <arrival publicID="smi:nz.org.geonet/Pick/20190428003722.698462.38361_Origin/20190428003829.174757.38801">
          <pickID>smi:nz.org.geonet/Pick/20190428003722.698462.38361</pickID>
          <phase>S</phase>
          <azimuth>238.2660522</azimuth>
          <distance>0.5698547959</distance>
          <timeResidual>1.917847633</timeResidual>
        </arrival>
        <arrival publicID="smi:nz.org.geonet/20190428.003558.76-AIC-NZ.KRHZ.10.EHZ_Origin/20190428003829.174757.38801">
          <pickID>smi:nz.org.geonet/20190428.003558.76-AIC-NZ.KRHZ.10.EHZ</pickID>
          <phase>P</phase>
          <azimuth>343.3031616</azimuth>
          <distance>0.6373775601</distance>
          <timeResidual>0.0854549408</timeResidual>
          <timeWeight>1.0</timeWeight>
        </arrival>
        <arrival publicID="smi:nz.org.geonet/Pick/20190428003722.698601.38363_Origin/20190428003829.174757.38801">
          <pickID>smi:nz.org.geonet/Pick/20190428003722.698601.38363</pickID>
          <phase>S</phase>
          <azimuth>343.3031616</azimuth>
          <distance>0.6373775601</distance>
          <timeResidual>1.451086998</timeResidual>
        </arrival>
        <arrival publicID="smi:nz.org.geonet/20190428.003559.55-AIC-NZ.POWZ.10.EHZ_Origin/20190428003829.174757.38801">
          <pickID>smi:nz.org.geonet/20190428.003559.55-AIC-NZ.POWZ.10.EHZ</pickID>
          <phase>P</phase>
          <azimuth>257.8301392</azimuth>
          <distance>0.6556169391</distance>
          <timeResidual>0.5763082504</timeResidual>
          <timeWeight>1.0</timeWeight>
        </arrival>
        <arrival publicID="smi:nz.org.geonet/20190428.003559.67-AIC-NZ.CKHZ.10.EHZ_Origin/20190428003829.174757.38801">
          <pickID>smi:nz.org.geonet/20190428.003559.67-AIC-NZ.CKHZ.10.EHZ</pickID>
          <phase>P</phase>
          <azimuth>31.34113312</azimuth>
          <distance>0.698432982</distance>
          <timeResidual>-0.01374530792</timeResidual>
          <timeWeight>1.0</timeWeight>
        </arrival>
        <arrival publicID="smi:nz.org.geonet/20190428.003600.36-AIC-NZ.CPWZ.10.EHZ_Origin/20190428003829.174757.38801">
          <pickID>smi:nz.org.geonet/20190428.003600.36-AIC-NZ.CPWZ.10.EHZ</pickID>
          <phase>P</phase>
          <azimuth>205.1898193</azimuth>
          <distance>0.722104907</distance>
          <timeResidual>0.2888689041</timeResidual>
          <timeWeight>1.0</timeWeight>
        </arrival>
        <arrival publicID="smi:nz.org.geonet/20190428.003602.14-AIC-NZ.MCHZ.10.EHZ_Origin/20190428003829.174757.38801">
          <pickID>smi:nz.org.geonet/20190428.003602.14-AIC-NZ.MCHZ.10.EHZ</pickID>
          <phase>P</phase>
          <azimuth>4.890100479</azimuth>
          <distance>0.8140545487</distance>
          <timeResidual>0.539100647</timeResidual>
          <timeWeight>1.0</timeWeight>
        </arrival>
        <arrival publicID="smi:nz.org.geonet/Pick/20190428003722.698666.38364_Origin/20190428003829.174757.38801">
          <pickID>smi:nz.org.geonet/Pick/20190428003722.698666.38364</pickID>
          <phase>S</phase>
          <azimuth>4.890100479</azimuth>
          <distance>0.8140545487</distance>
          <timeResidual>2.42205143</timeResidual>
        </arrival>
        <arrival publicID="smi:nz.org.geonet/20190428.003602.20-AIC-NZ.KWHZ.10.EHZ_Origin/20190428003829.174757.38801">
          <pickID>smi:nz.org.geonet/20190428.003602.20-AIC-NZ.KWHZ.10.EHZ</pickID>
          <phase>P</phase>
          <azimuth>350.2551575</azimuth>
          <distance>0.8433851004</distance>
          <timeResidual>0.1194677353</timeResidual>
          <timeWeight>1.0</timeWeight>
        </arrival>
        <arrival publicID="smi:nz.org.geonet/20190428.003602.40-AIC-NZ.MRZ.10.HHZ_Origin/20190428003829.174757.38801">
          <pickID>smi:nz.org.geonet/20190428.003602.40-AIC-NZ.MRZ.10.HHZ</pickID>
          <phase>P</phase>
          <azimuth>242.4464111</azimuth>
          <distance>0.8825747967</distance>
          <timeResidual>-0.3222723007</timeResidual>
          <timeWeight>1.0</timeWeight>
        </arrival>
        <arrival publicID="smi:nz.org.geonet/Pick/20190428003722.698729.38365_Origin/20190428003829.174757.38801">
          <pickID>smi:nz.org.geonet/Pick/20190428003722.698729.38365</pickID>
          <phase>S</phase>
          <azimuth>242.4464111</azimuth>
          <distance>0.8825747967</distance>
          <timeResidual>0.7235174179</timeResidual>
        </arrival>
        <arrival publicID="smi:nz.org.geonet/20190428.003603.56-AIC-NZ.TMWZ.10.EHZ_Origin/20190428003829.174757.38801">
          <pickID>smi:nz.org.geonet/20190428.003603.56-AIC-NZ.TMWZ.10.EHZ</pickID>
          <phase>P</phase>
          <azimuth>212.4551239</azimuth>
          <distance>1.009149909</distance>
          <timeResidual>-1.236977577</timeResidual>
        </arrival>
        <arrival publicID="smi:nz.org.geonet/20190428.003604.38-AIC-NZ.HOWZ.10.EHZ_Origin/20190428003829.174757.38801">
          <pickID>smi:nz.org.geonet/20190428.003604.38-AIC-NZ.HOWZ.10.EHZ</pickID>
          <phase>P</phase>
          <azimuth>232.0591278</azimuth>
          <distance>1.049647808</distance>
          <timeResidual>-1.005198479</timeResidual>
        </arrival>
        <arrival publicID="smi:nz.org.geonet/20190428.003604.62-AIC-NZ.ARHZ.10.EHZ_Origin/20190428003829.174757.38801">
          <pickID>smi:nz.org.geonet/20190428.003604.62-AIC-NZ.ARHZ.10.EHZ</pickID>
          <phase>P</phase>
          <azimuth>16.93367004</azimuth>
          <distance>1.036325574</distance>
          <timeResidual>-0.5771055222</timeResidual>
        </arrival>
        <arrival publicID="smi:nz.org.geonet/20190428.003606.34-AIC-NZ.MOVZ.10.EHZ_Origin/20190428003829.174757.38801">
          <pickID>smi:nz.org.geonet/20190428.003606.34-AIC-NZ.MOVZ.10.EHZ</pickID>
          <phase>P</phase>
          <azimuth>321.9442444</azimuth>
          <distance>1.073686481</distance>
          <timeResidual>0.6017713547</timeResidual>
        </arrival>
        <arrival publicID="smi:nz.org.geonet/20190428.003607.32-AIC-NZ.BKZ.10.HHZ_Origin/20190428003829.174757.38801">
          <pickID>smi:nz.org.geonet/20190428.003607.32-AIC-NZ.BKZ.10.HHZ</pickID>
          <phase>P</phase>
          <azimuth>355.3256226</azimuth>
          <distance>1.092927814</distance>
          <timeResidual>1.302376747</timeResidual>
        </arrival>
        <arrival publicID="smi:nz.org.geonet/20190428.003607.22-AIC-NZ.NMHZ.10.EHZ_Origin/20190428003829.174757.38801">
          <pickID>smi:nz.org.geonet/20190428.003607.22-AIC-NZ.NMHZ.10.EHZ</pickID>
          <phase>P</phase>
          <azimuth>7.634857178</azimuth>
          <distance>1.168048024</distance>
          <timeResidual>0.1109189987</timeResidual>
        </arrival>
        <arrival publicID="smi:nz.org.geonet/20190428.003608.92-AIC-NZ.WNVZ.11.EHZ_Origin/20190428003829.174757.38801">
