<?xml version='1.0' encoding='utf-8'?>
<q:quakeml xmlns:q="http://quakeml.org/xmlns/quakeml/1.2" xmlns="http://quakeml.org/xmlns/bed/1.2">
  <eventParameters publicID="smi:nz.org.geonet/NA">
    <event publicID="smi:nz.org.geonet/2018p546311">
      <preferredOriginID>smi:nz.org.geonet/Origin#20180722033227.67467.102773</preferredOriginID>
      <preferredMagnitudeID>smi:nz.org.geonet/Origin#20180722033227.67467.102773#netMag.M</preferredMagnitudeID>
      <type>earthquake</type>
      <description>
        <text>Nelson</text>
        <type>region name</type>
      </description>
      <creationInfo>
        <agencyID>WEL(GNS_Primary)</agencyID>
        <author>scevent@kseqp01.geonet.org.nz</author>
        <creationTime>2018-07-22T03:15:13.470110Z</creationTime>
      </creationInfo>
      <origin publicID="smi:nz.org.geonet/Origin#20180722033227.67467.102773">
        <time>
          <value>2018-07-22T03:14:44.634911Z</value>
          <uncertainty>0.8835286661</uncertainty>
          <confidenceLevel>89.99999762</confidenceLevel>
        </time>
        <latitude>
          <value>-41.2063942</value>
          <uncertainty>4.378651347</uncertainty>
          <confidenceLevel>89.99999762</confidenceLevel>
        </latitude>
        <longitude>
          <value>173.5365601</value>
          <uncertainty>3.537644327</uncertainty>
          <confidenceLevel>89.99999762</confidenceLevel>
        </longitude>
        <depth>
          <value>72544.7464</value>
          <uncertainty>7181.85733</uncertainty>
          <confidenceLevel>89.99999762</confidenceLevel>
        </depth>
        <methodID>smi:nz.org.geonet/LOCSAT</methodID>
        <earthModelID>smi:nz.org.geonet/iasp91</earthModelID>
        <quality>
          <associatedPhaseCount>204</associatedPhaseCount>
          <usedPhaseCount>34</usedPhaseCount>
          <associatedStationCount>187</associatedStationCount>
          <usedStationCount>19</usedStationCount>
          <depthPhaseCount>0</depthPhaseCount>
          <standardError>0.6081811938</standardError>
          <azimuthalGap>76.93807125</azimuthalGap>
          <minimumDistance>0.1190006584</minimumDistance>
          <maximumDistance>1.944734812</maximumDistance>
          <medianDistance>0.4062093198</medianDistance>
        </quality>
        <evaluationMode>manual</evaluationMode>
        <evaluationStatus>confirmed</evaluationStatus>
        <creationInfo>
          <agencyID>WEL(GNS_Primary)</agencyID>
          <author>jhanson@kseqx01.geonet.org.nz</author>
          <creationTime>2018-07-22T03:32:27.676913Z</creationTime>
        </creationInfo>
        <originUncertainty>
          <preferredDescription>confidence ellipsoid</preferredDescription>
          <horizontalUncertainty>5.629166457</horizontalUncertainty>
          <minHorizontalUncertainty>4.583277994</minHorizontalUncertainty>
          <maxHorizontalUncertainty>5.738435462</maxHorizontalUncertainty>
          <azimuthMaxHorizontalUncertainty>9.057964586</azimuthMaxHorizontalUncertainty>
          <confidenceEllipsoid>
            <semiMajorAxisLength>11815.45314</semiMajorAxisLength>
            <semiMinorAxisLength>4884.079138</semiMinorAxisLength>
            <semiIntermediateAxisLength>5379.163239</semiIntermediateAxisLength>
            <majorAxisPlunge>65.12099364</majorAxisPlunge>
            <majorAxisAzimuth>13.13714069</majorAxisAzimuth>
            <majorAxisRotation>156.016316</majorAxisRotation>
          </confidenceEllipsoid>
        </originUncertainty>
        <arrival publicID="smi:nz.org.geonet/20180722.031457.03-AIC-NZ.NNZ.10.HHZ#Origin#20180722033227.67467.102773">
          <pickID>smi:nz.org.geonet/20180722.031457.03-AIC-NZ.NNZ.10.HHZ</pickID>
          <phase>P</phase>
          <azimuth>264.7906189</azimuth>
          <distance>0.1190006584</distance>
          <timeResidual>1.011595726</timeResidual>
          <timeWeight>1.0</timeWeight>
        </arrival>
        <arrival publicID="smi:nz.org.geonet/Pick#20180722033010.930229.102696#Origin#20180722033227.67467.102773">
          <pickID>smi:nz.org.geonet/Pick#20180722033010.930229.102696</pickID>
          <phase>S</phase>
          <azimuth>264.7906189</azimuth>
          <distance>0.1190006584</distance>
          <timeResidual>1.747861862</timeResidual>
          <timeWeight>0.0</timeWeight>
        </arrival>
        <arrival publicID="smi:nz.org.geonet/Pick#20180722033010.929739.102692#Origin#20180722033227.67467.102773">
          <pickID>smi:nz.org.geonet/Pick#20180722033010.929739.102692</pickID>
          <phase>P</phase>
          <azimuth>109.4608459</azimuth>
          <distance>0.1983491331</distance>
          <timeResidual>0.7043094635</timeResidual>
          <timeWeight>1.0</timeWeight>
        </arrival>
        <arrival publicID="smi:nz.org.geonet/Pick#20180722033010.92996.102693#Origin#20180722033227.67467.102773">
          <pickID>smi:nz.org.geonet/Pick#20180722033010.92996.102693</pickID>
          <phase>S</phase>
          <azimuth>109.4608459</azimuth>
          <distance>0.1983491331</distance>
          <timeResidual>0.5687484741</timeResidual>
          <timeWeight>1.0</timeWeight>
        </arrival>
        <arrival publicID="smi:nz.org.geonet/Pick#20180722033010.930539.102700#Origin#20180722033227.67467.102773">
          <pickID>smi:nz.org.geonet/Pick#20180722033010.930539.102700</pickID>
          <phase>P</phase>
          <azimuth>251.2525177</azimuth>
          <distance>0.2013016045</distance>
          <timeResidual>-0.3800344467</timeResidual>
          <timeWeight>1.0</timeWeight>
        </arrival>
        <arrival publicID="smi:nz.org.geonet/Pick#20180722033010.930607.102701#Origin#20180722033227.67467.102773">
          <pickID>smi:nz.org.geonet/Pick#20180722033010.930607.102701</pickID>
          <phase>S</phase>
          <azimuth>251.2525177</azimuth>
          <distance>0.2013016045</distance>
          <timeResidual>0.1637849808</timeResidual>
          <timeWeight>1.0</timeWeight>
        </arrival>
        <arrival publicID="smi:nz.org.geonet/Pick#20180722033010.930681.102702#Origin#20180722033227.67467.102773">
          <pickID>smi:nz.org.geonet/Pick#20180722033010.930681.102702</pickID>
          <phase>P</phase>
          <azimuth>252.8636017</azimuth>
          <distance>0.204882741</distance>
          <timeResidual>-0.3576307297</timeResidual>
          <timeWeight>1.0</timeWeight>
        </arrival>
        <arrival publicID="smi:nz.org.geonet/Pick#20180722033010.930774.102703#Origin#20180722033227.67467.102773">
          <pickID>smi:nz.org.geonet/Pick#20180722033010.930774.102703</pickID>
          <phase>S</phase>
          <azimuth>252.8636017</azimuth>
          <distance>0.204882741</distance>
          <timeResidual>-0.08228111267</timeResidual>
          <timeWeight>1.0</timeWeight>
        </arrival>
        <arrival publicID="smi:nz.org.geonet/Pick#20180722033010.930847.102704#Origin#20180722033227.67467.102773">
          <pickID>smi:nz.org.geonet/Pick#20180722033010.930847.102704</pickID>
          <phase>P</phase>
          <azimuth>247.5613403</azimuth>
          <distance>0.2138711661</distance>
          <timeResidual>-0.198261261</timeResidual>
          <timeWeight>1.0</timeWeight>
        </arrival>
        <arrival publicID="smi:nz.org.geonet/Pick#20180722033010.930917.102705#Origin#20180722033227.67467.102773">
          <pickID>smi:nz.org.geonet/Pick#20180722033010.930917.102705</pickID>
          <phase>S</phase>
          <azimuth>247.5613403</azimuth>
          <distance>0.2138711661</distance>
          <timeResidual>0.6664333344</timeResidual>
          <timeWeight>1.0</timeWeight>
        </arrival>
        <arrival publicID="smi:nz.org.geonet/Pick#20180722033010.930308.102697#Origin#20180722033227.67467.102773">
          <pickID>smi:nz.org.geonet/Pick#20180722033010.930308.102697</pickID>
          <phase>P</phase>
          <azimuth>130.1226501</azimuth>
          <distance>0.3623856306</distance>
          <timeResidual>0.2303390503</timeResidual>
          <timeWeight>1.0</timeWeight>
        </arrival>
        <arrival publicID="smi:nz.org.geonet/Pick#20180722033010.930375.102698#Origin#20180722033227.67467.102773">
          <pickID>smi:nz.org.geonet/Pick#20180722033010.930375.102698</pickID>
          <phase>S</phase>
          <azimuth>130.1226501</azimuth>
          <distance>0.3623856306</distance>
          <timeResidual>0.1246051788</timeResidual>
          <timeWeight>1.0</timeWeight>
        </arrival>
        <arrival publicID="smi:nz.org.geonet/Pick#20180722033010.930069.102694#Origin#20180722033227.67467.102773">
          <pickID>smi:nz.org.geonet/Pick#20180722033010.930069.102694</pickID>
          <phase>P</phase>
          <azimuth>101.4361191</azimuth>
          <distance>0.3741632104</distance>
          <timeResidual>-1.353917122</timeResidual>
          <timeWeight>1.0</timeWeight>
        </arrival>
        <arrival publicID="smi:nz.org.geonet/Pick#20180722033010.930147.102695#Origin#20180722033227.67467.102773">
          <pickID>smi:nz.org.geonet/Pick#20180722033010.930147.102695</pickID>
          <phase>S</phase>
          <azimuth>101.4361191</azimuth>
          <distance>0.3741632104</distance>
          <timeResidual>-1.793890953</timeResidual>
          <timeWeight>0.0</timeWeight>
        </arrival>
        <arrival publicID="smi:nz.org.geonet/20180722.031458.93-AIC-NZ.TUWZ.10.EHZ#Origin#20180722033227.67467.102773">
          <pickID>smi:nz.org.geonet/20180722.031458.93-AIC-NZ.TUWZ.10.EHZ</pickID>
          <phase>P</phase>
          <azimuth>126.1860123</azimuth>
          <distance>0.3785699904</distance>
          <timeResidual>0.7920713425</timeResidual>
          <timeWeight>1.0</timeWeight>
        </arrival>
        <arrival publicID="smi:nz.org.geonet/Pick#20180722033010.930457.102699#Origin#20180722033227.67467.102773">
          <pickID>smi:nz.org.geonet/Pick#20180722033010.930457.102699</pickID>
          <phase>S</phase>
          <azimuth>126.1860123</azimuth>
          <distance>0.3785699904</distance>
          <timeResidual>0.5743865967</timeResidual>
          <timeWeight>1.0</timeWeight>
        </arrival>
        <arrival publicID="smi:nz.org.geonet/Pick#20180722033010.931285.102710#Origin#20180722033227.67467.102773">
          <pickID>smi:nz.org.geonet/Pick#20180722033010.931285.102710</pickID>
          <phase>P</phase>
          <azimuth>239.1488495</azimuth>
          <distance>0.3576345444</distance>
          <timeResidual>-0.6491260529</timeResidual>
          <timeWeight>1.0</timeWeight>
        </arrival>
        <arrival publicID="smi:nz.org.geonet/Pick#20180722033010.931342.102711#Origin#20180722033227.67467.102773">
          <pickID>smi:nz.org.geonet/Pick#20180722033010.931342.102711</pickID>
          <phase>S</phase>
          <azimuth>239.1488495</azimuth>
          <distance>0.3576345444</distance>
          <timeResidual>-0.5309028625</timeResidual>
          <timeWeight>1.0</timeWeight>
        </arrival>
        <arrival publicID="smi:nz.org.geonet/Pick#20180722033010.930987.102706#Origin#20180722033227.67467.102773">
          <pickID>smi:nz.org.geonet/Pick#20180722033010.930987.102706</pickID>
          <phase>P</phase>
          <azimuth>134.5691528</azimuth>
          <distance>0.4299734235</distance>
          <timeResidual>-0.6838941574</timeResidual>
          <timeWeight>1.0</timeWeight>
        </arrival>
        <arrival publicID="smi:nz.org.geonet/Pick#20180722033010.931057.102707#Origin#20180722033227.67467.102773">
          <pickID>smi:nz.org.geonet/Pick#20180722033010.931057.102707</pickID>
          <phase>S</phase>
          <azimuth>134.5691528</azimuth>
          <distance>0.4299734235</distance>
          <timeResidual>-0.7152633667</timeResidual>
          <timeWeight>1.0</timeWeight>
        </arrival>
        <arrival publicID="smi:nz.org.geonet/Pick#20180722033010.931536.102714#Origin#20180722033227.67467.102773">
          <pickID>smi:nz.org.geonet/Pick#20180722033010.931536.102714</pickID>
          <phase>P</phase>
          <azimuth>281.4196777</azimuth>
          <distance>0.4062093198</distance>
          <timeResidual>0.529211998</timeResidual>
          <timeWeight>1.0</timeWeight>
        </arrival>
        <arrival publicID="smi:nz.org.geonet/Pick#20180722033010.931595.102715#Origin#20180722033227.67467.102773">
          <pickID>smi:nz.org.geonet/Pick#20180722033010.931595.102715</pickID>
          <phase>S</phase>
          <azimuth>281.4196777</azimuth>
          <distance>0.4062093198</distance>
          <timeResidual>0.3759078979</timeResidual>
          <timeWeight>1.0</timeWeight>
        </arrival>
        <arrival publicID="smi:nz.org.geonet/Pick#20180722033010.93141.102712#Origin#20180722033227.67467.102773">
          <pickID>smi:nz.org.geonet/Pick#20180722033010.93141.102712</pickID>
          <phase>P</phase>
          <azimuth>198.5997009</azimuth>
          <distance>0.4364241064</distance>
          <timeResidual>-0.7617330551</timeResidual>
          <timeWeight>1.0</timeWeight>
        </arrival>
        <arrival publicID="smi:nz.org.geonet/Pick#20180722033010.931475.102713#Origin#20180722033227.67467.102773">
          <pickID>smi:nz.org.geonet/Pick#20180722033010.931475.102713</pickID>
          <phase>S</phase>
          <azimuth>198.5997009</azimuth>
          <distance>0.4364241064</distance>
          <timeResidual>-0.9629573822</timeResidual>
          <timeWeight>1.0</timeWeight>
        </arrival>
        <arrival publicID="smi:nz.org.geonet/20180722.031458.93-AIC-NZ.TKNZ.10.EHZ#Origin#20180722033227.67467.102773">
          <pickID>smi:nz.org.geonet/20180722.031458.93-AIC-NZ.TKNZ.10.EHZ</pickID>
          <phase>P</phase>
          <azimuth>291.4536743</azimuth>
          <distance>0.4682105184</distance>
          <timeResidual>0.04956531525</timeResidual>
          <timeWeight>1.0</timeWeight>
        </arrival>
        <arrival publicID="smi:nz.org.geonet/20180722.031458.62-AIC-NZ.DUWZ.10.EHZ#Origin#20180722033227.67467.102773">
          <pickID>smi:nz.org.geonet/20180722.031458.62-AIC-NZ.DUWZ.10.EHZ</pickID>
          <phase>P</phase>
          <azimuth>35.91334534</azimuth>
          <distance>0.4983901381</distance>
          <timeResidual>-0.5036344528</timeResidual>
          <timeWeight>1.0</timeWeight>
        </arrival>
        <arrival publicID="smi:nz.org.geonet/Pick#20180722033010.931127.102708#Origin#20180722033227.67467.102773">
          <pickID>smi:nz.org.geonet/Pick#20180722033010.931127.102708</pickID>
          <phase>S</phase>
          <azimuth>35.91334534</azimuth>
          <distance>0.4983901381</distance>
          <timeResidual>-0.3863964081</timeResidual>
          <timeWeight>1.0</timeWeight>
        </arrival>
        <arrival publicID="smi:nz.org.geonet/20180722.031459.48-AIC-NZ.TCW.10.EHZ#Origin#20180722033227.67467.102773">
          <pickID>smi:nz.org.geonet/20180722.031459.48-AIC-NZ.TCW.10.EHZ</pickID>
          <phase>P</phase>
          <azimuth>90.65000916</azimuth>
          <distance>0.5581672788</distance>
          <timeResidual>-0.1296348572</timeResidual>
          <timeWeight>1.0</timeWeight>
        </arrival>
        <arrival publicID="smi:nz.org.geonet/Pick#20180722033010.931219.102709#Origin#20180722033227.67467.102773">
          <pickID>smi:nz.org.geonet/Pick#20180722033010.931219.102709</pickID>
          <phase>S</phase>
          <azimuth>90.65000916</azimuth>
          <distance>0.5581672788</distance>
          <timeResidual>-0.8243961334</timeResidual>
          <timeWeight>1.0</timeWeight>
        </arrival>
        <arrival publicID="smi:nz.org.geonet/20180722.031500.00-AIC-NZ.BSWZ.10.EHZ#Origin#20180722033227.67467.102773">
          <pickID>smi:nz.org.geonet/20180722.031500.00-AIC-NZ.BSWZ.10.EHZ</pickID>
          <phase>P</phase>
          <azimuth>153.466217</azimuth>
          <distance>0.5684602857</distance>
          <timeResidual>0.3012523651</timeResidual>
          <timeWeight>1.0</timeWeight>
        </arrival>
        <arrival publicID="smi:nz.org.geonet/Pick#20180722033213.241512.102766#Origin#20180722033227.67467.102773">
          <pickID>smi:nz.org.geonet/Pick#20180722033213.241512.102766</pickID>
          <phase>P</phase>
          <azimuth>139.0890656</azimuth>
          <distance>0.6176199317</distance>
          <timeResidual>0.7547369003</timeResidual>
          <timeWeight>1.0</timeWeight>
        </arrival>
        <arrival publicID="smi:nz.org.geonet/Pick#20180722033213.241717.102767#Origin#20180722033227.67467.102773">
          <pickID>smi:nz.org.geonet/Pick#20180722033213.241717.102767</pickID>
          <phase>S</phase>
          <azimuth>139.0890656</azimuth>
          <distance>0.6176199317</distance>
          <timeResidual>1.124140739</timeResidual>
          <timeWeight>1.0</timeWeight>
        </arrival>
        <arrival publicID="smi:nz.org.geonet/20180722.031500.62-AIC-NZ.MRNZ.10.EHZ#Origin#20180722033227.67467.102773">
          <pickID>smi:nz.org.geonet/20180722.031500.62-AIC-NZ.MRNZ.10.EHZ</pickID>
          <phase>P</phase>
          <azimuth>251.5865326</azimuth>
          <distance>0.6175957322</distance>
          <timeResidual>0.5204343796</timeResidual>
          <timeWeight>0.0</timeWeight>
        </arrival>
        <arrival publicID="smi:nz.org.geonet/20180722.031501.69-AIC-NZ.CMWZ.10.EHZ#Origin#20180722033227.67467.102773">
          <pickID>smi:nz.org.geonet/20180722.031501.69-AIC-NZ.CMWZ.10.EHZ</pickID>
          <phase>P</phase>
          <azimuth>137.0353394</azimuth>
          <distance>0.7435839176</distance>
          <timeResidual>0.56944561</timeResidual>
          <timeWeight>0.0</timeWeight>
        </arrival>
        <arrival publicID="smi:nz.org.geonet/20180722.031501.89-AIC-NZ.THZ.10.HHZ#Origin#20180722033227.67467.102773">
          <pickID>smi:nz.org.geonet/20180722.031501.89-AIC-NZ.THZ.10.HHZ</pickID>
          <phase>P</phase>
          <azimuth>220.281311</azimuth>
          <distance>0.7305543423</distance>
          <timeResidual>0.869225502</timeResidual>
          <timeWeight>0.0</timeWeight>
        </arrival>
        <arrival publicID="smi:nz.org.geonet/20180722.031502.24-AIC-NZ.QRZ.10.HHZ#Origin#20180722033227.67467.102773">
          <pickID>smi:nz.org.geonet/20180722.031502.24-AIC-NZ.QRZ.10.HHZ</pickID>
          <phase>P</phase>
          <azimuth>296.1960144</azimuth>
          <distance>0.8519967794</distance>
          <timeResidual>0.2250013351</timeResidual>
          <timeWeight>0.0</timeWeight>
        </arrival>
        <arrival publicID="smi:nz.org.geonet/20180722.031502.64-AIC-NZ.WEL.10.HHZ#Origin#20180722033227.67467.102773">
          <pickID>smi:nz.org.geonet/20180722.031502.64-AIC-NZ.WEL.10.HHZ</pickID>
          <phase>P</phase>
          <azimuth>95.17932129</azimuth>
          <distance>0.9319791794</distance>
          <timeResidual>-0.03113651276</timeResidual>
          <timeWeight>0.0</timeWeight>
        </arrival>
        <arrival publicID="smi:nz.org.geonet/20180722.031503.50-AIC-NZ.BHW.10.HHZ#Origin#20180722033227.67467.102773">
          <pickID>smi:nz.org.geonet/20180722.031503.50-AIC-NZ.BHW.10.HHZ</pickID>
          <phase>P</phase>
          <azimuth>101.7796936</azimuth>
          <distance>1.025426149</distance>
          <timeResidual>-0.04776096344</timeResidual>
          <timeWeight>0.0</timeWeight>
        </arrival>
        <arrival publicID="smi:nz.org.geonet/20180722.031504.33-AIC-NZ.KIW.10.EHZ#Origin#20180722033227.67467.102773">
          <pickID>smi:nz.org.geonet/20180722.031504.33-AIC-NZ.KIW.10.EHZ</pickID>
          <phase>P</phase>
          <azimuth>72.068573</azimuth>
          <distance>1.094641805</distance>
          <timeResidual>-0.1119031906</timeResidual>
          <timeWeight>0.0</timeWeight>
        </arrival>
        <arrival publicID="smi:nz.org.geonet/20180722.031504.86-AIC-NZ.CAW.10.EHZ#Origin#20180722033227.67467.102773">
